{
  "type": "FeatureCollection",
  "features": [
    {
      "type": "Feature",
      "properties": {
        "norad_id": 50032,
        "name": "COSMOS 1408 DEB",
        "group": "cosmos-1408-debris",
        "lat": -42.41001094764094,
        "lon": 55.07223891150845,
        "alt_km": 437.19477324506715,
        "timestamp": "2025-12-09T09:46:47.915864+00:00",
        "meta_object_name": "COSMOS 1408 DEB",
        "meta_object_id": "1982-092RU",
        "meta_epoch": "2025-12-08T23:05:19.988160",
        "meta_mean_motion": 15.456342,
        "meta_eccentricity": 0.0014933,
        "meta_inclination": 82.5642,
        "meta_ra_of_asc_node": 62.3805,
        "meta_arg_of_pericenter": 223.1585,
        "meta_mean_anomaly": 136.8494,
        "meta_ephemeris_type": 0,
        "meta_classification_type": "U",
        "meta_norad_cat_id": 50032,
        "meta_element_set_no": 999,
        "meta_rev_at_epoch": 22545,
        "meta_bstar": 0.00013893,
        "meta_mean_motion_dot": 6.758e-05,
        "meta_mean_motion_ddot": 0,
        "tle_line1": "1 50032U 82092RU  25342.96203690  .00006758  00000+0  13893-3 0  9994",
        "tle_line2": "2 50032  82.5642  62.3805 0014933 223.1585 136.8494 15.45634200225452"
      },
      "geometry": {
        "type": "Point",
        "coordinates": [
          55.07223891150845,
          -42.41001094764094
        ]
      }
    },
    {
      "type": "Feature",
      "properties": {
        "norad_id": 50058,
        "name": "COSMOS 1408 DEB",
        "group": "cosmos-1408-debris",
        "lat": -59.35057442048738,
        "lon": 60.18119957320985,
        "alt_km": 394.78646706627296,
        "timestamp": "2025-12-09T09:46:47.915886+00:00",
        "meta_object_name": "COSMOS 1408 DEB",
        "meta_object_id": "1982-092SW",
        "meta_epoch": "2025-12-08T07:55:44.645376",
        "meta_mean_motion": 15.63709561,
        "meta_eccentricity": 0.0016354,
        "meta_inclination": 82.6131,
        "meta_ra_of_asc_node": 73.955,
        "meta_arg_of_pericenter": 114.3465,
        "meta_mean_anomaly": 245.9504,
        "meta_ephemeris_type": 0,
        "meta_classification_type": "U",
        "meta_norad_cat_id": 50058,
        "meta_element_set_no": 999,
        "meta_rev_at_epoch": 22735,
        "meta_bstar": 0.0004087218,
        "meta_mean_motion_dot": 0.00038485,
        "meta_mean_motion_ddot": 0,
        "tle_line1": "1 50058U 82092SW  25342.33037784  .00038485  00000+0  40872-3 0  9991",
        "tle_line2": "2 50058  82.6131  73.9550 0016354 114.3465 245.9504 15.63709561227354"
      },
      "geometry": {
        "type": "Point",
        "coordinates": [
          60.18119957320985,
          -59.35057442048738
        ]
      }
    },
    {
      "type": "Feature",
      "properties": {
        "norad_id": 50404,
        "name": "COSMOS 1408 DEB",
        "group": "cosmos-1408-debris",
        "lat": -61.82705389896103,
        "lon": -156.3799380014893,
        "alt_km": 525.3450222437805,
        "timestamp": "2025-12-09T09:46:47.915900+00:00",
        "meta_object_name": "COSMOS 1408 DEB",
        "meta_object_id": "1982-092ADS",
        "meta_epoch": "2025-12-08T16:36:04.914720",
        "meta_mean_motion": 15.1292564,
        "meta_eccentricity": 0.01736051,
        "meta_inclination": 82.2033,
        "meta_ra_of_asc_node": 219.1748,
        "meta_arg_of_pericenter": 212.8662,
        "meta_mean_anomaly": 146.1681,
        "meta_ephemeris_type": 0,
        "meta_classification_type": "U",
        "meta_norad_cat_id": 50404,
        "meta_element_set_no": 999,
        "meta_rev_at_epoch": 21132,
        "meta_bstar": 0.003399847,
        "meta_mean_motion_dot": 0.00087766,
        "meta_mean_motion_ddot": 0,
        "tle_line1": "1 50404U 82092ADS 25342.69172355  .00087766  00000+0  33998-2 0  9995",
        "tle_line2": "2 50404  82.2033 219.1748 0173605 212.8662 146.1681 15.12925640211325"
      },
      "geometry": {
        "type": "Point",
        "coordinates": [
          -156.3799380014893,
          -61.82705389896103
        ]
      }
    },
    {
      "type": "Feature",
      "properties": {
        "norad_id": 50621,
        "name": "COSMOS 1408 DEB",
        "group": "cosmos-1408-debris",
        "lat": 44.25354599872254,
        "lon": 84.95331502344682,
        "alt_km": 404.13735400607493,
        "timestamp": "2025-12-09T09:46:47.915912+00:00",
        "meta_object_name": "COSMOS 1408 DEB",
        "meta_object_id": "1982-092ALR",
        "meta_epoch": "2025-12-08T18:09:24.571296",
        "meta_mean_motion": 15.56343365,
        "meta_eccentricity": 0.00288369,
        "meta_inclination": 82.5706,
        "meta_ra_of_asc_node": 78.3265,
        "meta_arg_of_pericenter": 167.0351,
        "meta_mean_anomaly": 193.1653,
        "meta_ephemeris_type": 0,
        "meta_classification_type": "U",
        "meta_norad_cat_id": 50621,
        "meta_element_set_no": 999,
        "meta_rev_at_epoch": 22188,
        "meta_bstar": 0.00048240761,
        "meta_mean_motion_dot": 0.00034742,
        "meta_mean_motion_ddot": 0,
        "tle_line1": "1 50621U 82092ALR 25342.75653439  .00034742  00000+0  48241-3 0  9994",
        "tle_line2": "2 50621  82.5706  78.3265 0028836 167.0351 193.1653 15.56343365221885"
      },
      "geometry": {
        "type": "Point",
        "coordinates": [
          84.95331502344682,
          44.25354599872254
        ]
      }
    }
  ]
}